[{"OBJECT_NAME":"STARLINK-34929","OBJECT_ID":"2025-175E","EPOCH":"2026-03-09T12:47:45.998592","MEAN_MOTION":15.05658367,"ECCENTRICITY":0.00023328,"INCLINATION":97.6032,"RA_OF_ASC_NODE":302.4513,"ARG_OF_PERICENTER":89.1334,"MEAN_ANOMALY":271.016,"EPHEMERIS_TYPE":0,"CLASSIFICATION_TYPE":"U","NORAD_CAT_ID":65178,"ELEMENT_SET_NO":999,"REV_AT_EPOCH":3261,"BSTAR":0.00056909631,"MEAN_MOTION_DOT":8.162e-5,"MEAN_MOTION_DDOT":0},{"OBJECT_NAME":"FENGYUN 1C DEB","OBJECT_ID":"1999-025AFM","EPOCH":"2026-03-09T00:10:59.422080","MEAN_MOTION":14.62656122,"ECCENTRICITY":0.01859131,"INCLINATION":98.0774,"RA_OF_ASC_NODE":85.1868,"ARG_OF_PERICENTER":297.7723,"MEAN_ANOMALY":114.9924,"EPHEMERIS_TYPE":0,"CLASSIFICATION_TYPE":"U","NORAD_CAT_ID":30450,"ELEMENT_SET_NO":999,"REV_AT_EPOCH":797,"BSTAR":0.00091047967,"MEAN_MOTION_DOT":5.887e-5,"MEAN_MOTION_DDOT":0}]
